Satellite S2
1 40697U 15028A   24075.46625358  .00000200  00000-0  92985-4 0  9998
2 40697  98.5716 151.0628 0001288  97.9456 262.1873 14.30812858455942